#cP2016  5 31  0  0  0.00000000      96 ORBIT IGb08 HLM  IGS
## 1899 172800.00000000   900.00000000 57539 0.0000000000000
+   32   G01G02G03G04G05G06G07G08G09G10G11G12G13G14G15G16G17
+        G18G19G20G21G22G23G24G25G26G27G28G29G30G31G32  0  0
+          0  0  0  0  0  0  0  0  0  0  0  0  0  0  0  0  0
+          0  0  0  0  0  0  0  0  0  0  0  0  0  0  0  0  0
+          0  0  0  0  0  0  0  0  0  0  0  0  0  0  0  0  0
++         1  2  2  0  2  2  2  2  2  2  2  2  2  2  2  2  2
++         2  2  2  2  2  2  2  2  1  2  2  2  2  2  2  0  0
++         0  0  0  0  0  0  0  0  0  0  0  0  0  0  0  0  0
++         0  0  0  0  0  0  0  0  0  0  0  0  0  0  0  0  0
++         0  0  0  0  0  0  0  0  0  0  0  0  0  0  0  0  0
%c G  cc GPS ccc cccc cccc cccc cccc ccccc ccccc ccccc ccccc
%c cc cc ccc ccc cccc cccc cccc cccc ccccc ccccc ccccc ccccc
%f  1.2500000  1.025000000  0.00000000000  0.000000000000000
%f  0.0000000  0.000000000  0.00000000000  0.000000000000000
%i    0    0    0    0      0      0      0      0         0
%i    0    0    0    0      0      0      0      0         0
/* FINAL ORBIT COMBINATION FROM WEIGHTED AVERAGE OF:        
/* cod emr esa gfz grg jpl mit ngs sio                      
/* REFERENCED TO IGS TIME (IGST) AND TO WEIGHTED MEAN POLE: 
/* PCV:IGS08_1899 OL/AL:FES2004  NONE     Y  ORB:CMB CLK:CMB
*  2016  5 31  3 45  0.00000000
PG01   5896.171714  14289.861871 -21697.389684     22.089652  3  5  3  82       
PG02  15685.122807 -14870.142503  15613.660209    588.579478  6  7  4  87       
PG03  12457.321153  22472.884398  -6712.180028    -62.861415  4  5  5  83       
PG04 -16503.479799   1255.318111  20623.344527 999999.999999
PG05   4210.067934 -17090.329524  19768.828342   -116.604313  6  6  3  76       
PG06  25699.177287  -6213.887200   2566.402597    197.923889  6  6  4  77       
PG07  21415.740657   7019.156211  14510.446697    451.422771  3  7  4  80       
PG08  -5029.474336  25413.417013  -5715.565358    -37.171599  7  7  5 100       
PG09  10857.732816  12750.252637  20595.739434    139.392448  3  6  3  96       
PG10 -19508.934892  -4204.508086 -17539.242947    -34.755525  4  6  7  93       
PG11    939.203410  18055.628794 -20007.290638   -648.846719  5  4  7  96       
PG12  -9151.181194 -23113.786111  -9788.071047    381.341168  7  7  5 115       
PG13  12503.419365 -23471.167333    776.818916    -21.484674  5  8  3  77       
PG14 -17539.246273   9742.223546 -17068.276347    -16.752079  6  5  4 104       
PG15   1231.205815 -25070.014672  -8251.535205   -313.217801  5  9  3  86       
PG16  -5498.010788  15554.084825  20611.976267    -13.998769  7  9  8 121       
PG17  16554.653720  -4658.089008 -19858.591344   -203.929937  4  5  4  88       
PG18 -20637.950383 -14952.146185  -7382.540871    521.368074  6  8  6  97       
PG19  17693.781861 -14250.746208 -14301.863150   -525.630108  5  8  8  71       
PG20 -10746.083442 -21941.517551  10218.943381    415.519958  6  7  6  95       
PG21 -23309.961888  -4944.988197  12730.206297   -524.380778  8  8  4 110       
PG22   5139.889516  21794.569735 -13950.311941    330.768148  4  7  5 103       
PG23   4450.067452  20810.003581  15801.957757   -176.083412  6  8  6 100       
PG24  -2092.416785 -15359.709367 -21619.995544    -17.852750  7  8  6  95       
PG25 -17577.166914 -20007.830899   1249.683001   -181.324062  5  3  5 100       
PG26 -13521.786643   7418.325004  21622.143738   -381.146561  4  5  4  92       
PG27 -12050.564555  23036.527901   4934.209507     98.263382  4  3  6 101       
PG28  18746.078936   7669.329083 -16578.379974    526.774589  5  3  6  88       
PG29  -7547.234106 -16051.146401  19789.563715    657.004692  6  6  3  80       
PG30  25977.491647   1402.687293   5603.286157    129.472127  6  6  4 108       
PG31 -25052.904306   7427.432221   5844.820622    266.325632  3  6  3  61       
PG32 -16905.901856   7108.743693 -19196.469069    -15.156499  5  6  3  90       
*  2016  5 31  4  0  0.00000000
PG01   3469.894703  14773.673669 -21876.052740     22.090749  3  5  3  75       
PG02  17312.705641 -15022.836622  13514.835217    588.577322  7  8  5  67       
PG03  11665.910551  21943.114562  -9361.635784    -62.864684  5  5  5  76       
PG04 -17946.410537   -566.429113  19449.197828 999999.999999
PG05   5858.602523 -15428.511679  20708.602882   -116.601536  6  6  3  77       
PG06  25874.527119  -5999.355965   -291.980938    197.928779  5  6  4  78       
PG07  19730.450641   7464.756485  16519.273631    451.420621  3  7  4  90       
PG08  -5418.900789  25811.464291  -2908.732396    -37.173235  7  7  5  94       
PG09  10045.355508  14905.597794  19532.614638    139.399076  3  6  4  93       
PG10 -20652.251182  -5735.638596 -15708.733443    -34.763286  3  6  6  96       
PG11   -954.091552  19089.913818 -18988.765598   -648.847978  6  4  7 103       
PG12  -8280.579762 -22227.650302 -12305.461038    381.342268  7  8  5 100       
PG13  12587.778643 -23138.943508   3634.587501    -21.487080  4  8  3  79       
PG14 -16863.875357   7751.265365 -18683.396053    -16.754106  5  4  4 108       
PG15   1769.898379 -25741.820452  -5590.090691   -313.219255  5  9  3  82       
PG16  -7028.783378  13662.862439  21498.329209    -13.996479  7  9  8 113       
PG17  15770.681070  -2390.014087 -20873.241964   -203.930188  3  5  4  79       
PG18 -20914.543164 -15728.166356  -4731.294942    521.371643  6  7  6 110       
PG19  17122.007932 -12645.095941 -16360.257259   -525.629808  5  8  8  67       
PG20  -9572.459098 -21241.308541  12565.801962    415.522289  5  7  6  87       
PG21 -21930.346454  -5487.281347  14883.962369   -524.381723  7  7  4 105       
PG22   3736.164973  20697.466978 -15908.898737    330.760633  3  8  5 115       
PG23   3694.477106  22328.189848  13725.962499   -176.084879  6  8  6  91       
PG24    304.735521 -15869.163312 -21331.289861    -17.852385  7  8  6  91       
PG25 -17429.240998 -20127.704141  -1629.138352   -181.330398  5  3  5 113       
PG26 -15122.333411   5568.231624  21116.068666   -381.157156  4  5  4  87       
PG27 -12038.216372  22272.452862   7698.444347     98.267106  5  3  6 106       
PG28  19769.721826   9250.048503 -14536.761630    526.777029  5  3  6  93       
PG29  -6649.005657 -18035.513058  18354.073605    657.004344  6  7  2  80       
PG30  25224.164293   1763.717800   8285.568683    129.474636  5  6  4 107       
PG31 -25569.793031   7319.408406   3049.026858    266.323947  3  6  3  75       
PG32 -16300.065179   4922.071715 -20370.431944    -15.162817  5  6  3  95       
*  2016  5 31  4 15  0.00000000
PG01   1071.226528  15385.473324 -21681.016269     22.091842  3  5  4  68       
PG02  18697.647171 -15180.746844  11184.745578    588.575135  6  9  5  75       
PG03  10643.116245  21248.694534 -11849.896361    -62.867893  5  4  5  88       
PG04 -19380.757596  -2191.676664  17936.946288 999999.999999
PG05   7647.364133 -13790.762967  21288.821969   -116.599272  6  5  3  93       
PG06  25748.497326  -5710.516631  -3145.339600    197.933632  5  6  4  74       
PG07  17866.668662   8050.433062  18251.161672    451.418793  3  7  4  93       
PG08  -5704.764714  25918.822956    -51.681662    -37.174851  7  7  6  99       
PG09   9379.825328  16964.945836  18132.785641    139.405663  3  6  4  63       
PG10 -21715.994457  -7047.723502 -13608.306756    -34.771142  3  6  6  91       
PG11  -2699.356983  20130.339000 -17657.173869   -648.848979  6  5  7 104       
PG12  -7179.090982 -21190.643943 -14614.887304    381.343195  7  9  6  99       
PG13  12573.052005 -22513.475997   6429.999517    -21.489463  5  8  3  79       
PG14 -16237.156156   5571.088565 -19968.724412    -16.755958  5  4  4  97       
PG15   2214.986210 -26137.384062  -2830.706732   -313.220668  5  9  3 108       
PG16  -8713.407943  11802.713777  22009.065327    -13.994237  6  8  8 114       
PG17  15080.401590      7.225541 -21516.736537   -203.930088  2  5  4  92       
PG18 -21009.107222 -16277.453639  -1998.862059    521.375004  5  7  6  99       
PG19  16564.419852 -10808.624233 -18145.987569   -525.629934  4  8  8  89       
PG20  -8174.194058 -20431.810966  14694.210941    415.524435  5  7  5  99       
PG21 -20367.614000  -6157.238155  16795.664390   -524.382564  7  7  3 110       
PG22   2133.442559  19522.680673 -17587.789160    330.753020  3  7  4 107       
PG23   3076.745999  23643.955374  11411.326098   -176.086343  6  9  6  89       
PG24   2624.033446 -16484.348565 -20676.712124    -17.852789  7  8  6  93       
PG25 -17060.965927 -20025.696127  -4480.290999   -181.336721  6  3  5 113       
PG26 -16761.413539   3859.108303  20246.756312   -381.167742  4  5  4  83       
PG27 -11987.816274  21211.997010  10328.707634     98.270842  5  4  6 125       
PG28  20715.571358  10575.603572 -12235.229701    526.779288  5  3  6  66       
PG29  -5917.643637 -19894.444148  16603.356636    657.004287  6  7  1 104       
PG30  24200.697258   2218.886018  10826.019219    129.477184  5  6  4 100       
PG31 -25783.419708   7167.703991    201.987660    266.322520  3  6  3  69       
PG32 -15779.676122   2597.651810 -21193.451960    -15.169158  5  6  3 103       
EOF
